ATLAS CENTAUR 2         
1 00694U 63047A   26085.37054054  .00002024  00000+0  23290-3 0  9994
2 00694  30.3562 102.4138 0547422 227.3073 128.0156 14.12130818133983
THOR AGENA D R/B        
1 00733U 64002A   26085.47706999  .00000171  00000+0  78426-4 0  9996
2 00733  99.1217  99.7294 0032455 208.0571 151.8864 14.34028636240709
SL-3 R/B                
1 00877U 64053B   26085.52663229  .00000168  00000+0  56823-4 0  9998
2 00877  65.0756 281.8735 0080333 286.9205  72.3100 14.61379255269256
SL-8 R/B                
1 02802U 67045B   26085.39104215  .00000281  00000+0  85317-4 0  9998
2 02802  74.0115 316.9003 0064789 319.4578  40.1763 14.45635653 91435
SL-8 R/B                
1 03230U 68040B   26085.54639651  .00003560  00000+0  26347-3 0  9994
2 03230  74.0294 279.2452 0023309  96.3981 263.9863 15.03364968 92542
OAO 2                   
1 03597U 68110A   26085.27104704  .00000231  00000+0  67237-4 0  9990
2 03597  34.9925 172.6427 0005941 325.8862  34.1447 14.47316816 21502
ISIS 1                  
1 03669U 69009A   26085.44659810  .00000110  00000+0  63729-4 0  9998
2 03669  88.4513 153.4802 1707867  55.3601 319.6804 11.30418436350420
SERT 2                  
1 04327U 70009A   26085.42358925  .00000010  00000+0  70824-4 0  9996
2 04327  99.2779  27.6033 0005578 116.8322 351.1227 13.58731364782166
SL-3 R/B                
1 05118U 71028B   26085.50592502  .00040833  00000+0  45360-3 0  9990
2 05118  81.2367  31.2383 0014156 214.9129 145.1198 15.62594953991297
ASTEX 1                 
1 05560U 71089A   26085.44480509  .00000415  00000+0  10555-3 0  9994
2 05560  92.7097 157.1755 0016709  35.5941 324.6376 14.50786424864733
SL-8 R/B                
1 05730U 71119B   26085.42345878  .00006921  00000+0  36273-3 0  9997
2 05730  73.8859 144.4342 0546699 107.5282 258.6360 14.38186299657899
OAO 3 (COPERNICUS)      
1 06153U 72065A   26085.42112851  .00000331  00000+0  72283-4 0  9992
2 06153  35.0049 201.9872 0007264 295.7073 119.0519 14.60010818848644
ATLAS CENTAUR R/B       
1 06155U 72065B   26085.31458556  .00001327  00000+0  18362-3 0  9990
2 06155  35.0006 208.3204 0033165 151.0162 209.2387 14.77732108843721
SL-8 R/B                
1 08459U 75112B   26085.47548767  .00000225  00000+0  82502-4 0  9990
2 08459  74.0631 348.0367 0014517  74.2945 285.9810 14.38213264634289
SL-3 R/B                
1 10114U 77057B   26085.48570905  .00013179  00000+0  27215-3 0  9992
2 10114  97.5797 258.1539 0006630 213.8996 146.1830 15.45961118670927
SEASAT 1                
1 10967U 78064A   26085.44322999  .00000252  00000+0  10883-3 0  9992
2 10967 108.0080 160.6530 0002588 277.6759  82.4092 14.46173607508938
SL-14 R/B               
1 11267U 79011B   26085.41490760  .00000674  00000+0  64024-4 0  9993
2 11267  82.5207  80.6949 0016176   7.6003 352.5458 14.91928645531275
