[{"OBJECT_NAME":"ATLAS CENTAUR 2","OBJECT_ID":"1963-047A","EPOCH":"2026-03-26T08:53:34.702656","MEAN_MOTION":14.12130818,"ECCENTRICITY":0.0547422,"INCLINATION":30.3562,"RA_OF_ASC_NODE":102.4138,"ARG_OF_PERICENTER":227.3073,"MEAN_ANOMALY":128.0156,"EPHEMERIS_TYPE":0,"CLASSIFICATION_TYPE":"U","NORAD_CAT_ID":694,"ELEMENT_SET_NO":999,"REV_AT_EPOCH":13398,"BSTAR":0.0002329,"MEAN_MOTION_DOT":2.024e-5,"MEAN_MOTION_DDOT":0},{"OBJECT_NAME":"THOR AGENA D R/B","OBJECT_ID":"1964-002A","EPOCH":"2026-03-26T11:26:58.847136","MEAN_MOTION":14.34028636,"ECCENTRICITY":0.0032455,"INCLINATION":99.1217,"RA_OF_ASC_NODE":99.7294,"ARG_OF_PERICENTER":208.0571,"MEAN_ANOMALY":151.8864,"EPHEMERIS_TYPE":0,"CLASSIFICATION_TYPE":"U","NORAD_CAT_ID":733,"ELEMENT_SET_NO":999,"REV_AT_EPOCH":24070,"BSTAR":7.8426e-5,"MEAN_MOTION_DOT":1.71e-6,"MEAN_MOTION_DDOT":0},{"OBJECT_NAME":"SL-3 R/B","OBJECT_ID":"1964-053B","EPOCH":"2026-03-26T12:38:21.029856","MEAN_MOTION":14.61379255,"ECCENTRICITY":0.0080333,"INCLINATION":65.0756,"RA_OF_ASC_NODE":281.8735,"ARG_OF_PERICENTER":286.9205,"MEAN_ANOMALY":72.31,"EPHEMERIS_TYPE":0,"CLASSIFICATION_TYPE":"U","NORAD_CAT_ID":877,"ELEMENT_SET_NO":999,"REV_AT_EPOCH":26925,"BSTAR":5.6823e-5,"MEAN_MOTION_DOT":1.68e-6,"MEAN_MOTION_DDOT":0},{"OBJECT_NAME":"SL-8 R/B","OBJECT_ID":"1967-045B","EPOCH":"2026-03-26T09:23:06.041760","MEAN_MOTION":14.45635653,"ECCENTRICITY":0.0064789,"INCLINATION":74.0115,"RA_OF_ASC_NODE":316.9003,"ARG_OF_PERICENTER":319.4578,"MEAN_ANOMALY":40.1763,"EPHEMERIS_TYPE":0,"CLASSIFICATION_TYPE":"U","NORAD_CAT_ID":2802,"ELEMENT_SET_NO":999,"REV_AT_EPOCH":9143,"BSTAR":8.5317e-5,"MEAN_MOTION_DOT":2.81e-6,"MEAN_MOTION_DDOT":0},{"OBJECT_NAME":"SL-8 R/B","OBJECT_ID":"1968-040B","EPOCH":"2026-03-26T13:06:48.658464","MEAN_MOTION":15.03364968,"ECCENTRICITY":0.0023309,"INCLINATION":74.0294,"RA_OF_ASC_NODE":279.2452,"ARG_OF_PERICENTER":96.3981,"MEAN_ANOMALY":263.9863,"EPHEMERIS_TYPE":0,"CLASSIFICATION_TYPE":"U","NORAD_CAT_ID":3230,"ELEMENT_SET_NO":999,"REV_AT_EPOCH":9254,"BSTAR":0.00026347,"MEAN_MOTION_DOT":3.56e-5,"MEAN_MOTION_DDOT":0},{"OBJECT_NAME":"OAO 2","OBJECT_ID":"1968-110A","EPOCH":"2026-03-26T06:30:18.464256","MEAN_MOTION":14.47316816,"ECCENTRICITY":0.0005941,"INCLINATION":34.9925,"RA_OF_ASC_NODE":172.6427,"ARG_OF_PERICENTER":325.8862,"MEAN_ANOMALY":34.1447,"EPHEMERIS_TYPE":0,"CLASSIFICATION_TYPE":"U","NORAD_CAT_ID":3597,"ELEMENT_SET_NO":999,"REV_AT_EPOCH":2150,"BSTAR":6.7237e-5,"MEAN_MOTION_DOT":2.31e-6,"MEAN_MOTION_DDOT":0},{"OBJECT_NAME":"ISIS 1","OBJECT_ID":"1969-009A","EPOCH":"2026-03-26T10:43:06.075840","MEAN_MOTION":11.30418436,"ECCENTRICITY":0.1707867,"INCLINATION":88.4513,"RA_OF_ASC_NODE":153.4802,"ARG_OF_PERICENTER":55.3601,"MEAN_ANOMALY":319.6804,"EPHEMERIS_TYPE":0,"CLASSIFICATION_TYPE":"U","NORAD_CAT_ID":3669,"ELEMENT_SET_NO":999,"REV_AT_EPOCH":35042,"BSTAR":6.3729e-5,"MEAN_MOTION_DOT":1.1e-6,"MEAN_MOTION_DDOT":0},{"OBJECT_NAME":"SERT 2","OBJECT_ID":"1970-009A","EPOCH":"2026-03-26T10:09:58.111200","MEAN_MOTION":13.58731364,"ECCENTRICITY":0.0005578,"INCLINATION":99.2779,"RA_OF_ASC_NODE":27.6033,"ARG_OF_PERICENTER":116.8322,"MEAN_ANOMALY":351.1227,"EPHEMERIS_TYPE":0,"CLASSIFICATION_TYPE":"U","NORAD_CAT_ID":4327,"ELEMENT_SET_NO":999,"REV_AT_EPOCH":78216,"BSTAR":7.0824e-5,"MEAN_MOTION_DOT":1.0e-7,"MEAN_MOTION_DDOT":0},{"OBJECT_NAME":"SL-3 R/B","OBJECT_ID":"1971-028B","EPOCH":"2026-03-26T12:08:31.921728","MEAN_MOTION":15.62594953,"ECCENTRICITY":0.0014156,"INCLINATION":81.2367,"RA_OF_ASC_NODE":31.2383,"ARG_OF_PERICENTER":214.9129,"MEAN_ANOMALY":145.1198,"EPHEMERIS_TYPE":0,"CLASSIFICATION_TYPE":"U","NORAD_CAT_ID":5118,"ELEMENT_SET_NO":999,"REV_AT_EPOCH":99129,"BSTAR":0.0004536,"MEAN_MOTION_DOT":0.00040833,"MEAN_MOTION_DDOT":0},{"OBJECT_NAME":"ASTEX 1","OBJECT_ID":"1971-089A","EPOCH":"2026-03-26T10:40:31.159776","MEAN_MOTION":14.50786424,"ECCENTRICITY":0.0016709,"INCLINATION":92.7097,"RA_OF_ASC_NODE":157.1755,"ARG_OF_PERICENTER":35.5941,"MEAN_ANOMALY":324.6376,"EPHEMERIS_TYPE":0,"CLASSIFICATION_TYPE":"U","NORAD_CAT_ID":5560,"ELEMENT_SET_NO":999,"REV_AT_EPOCH":86473,"BSTAR":0.00010555,"MEAN_MOTION_DOT":4.15e-6,"MEAN_MOTION_DDOT":0},{"OBJECT_NAME":"SL-8 R/B","OBJECT_ID":"1971-119B","EPOCH":"2026-03-26T10:09:46.838592","MEAN_MOTION":14.38186299,"ECCENTRICITY":0.0546699,"INCLINATION":73.8859,"RA_OF_ASC_NODE":144.4342,"ARG_OF_PERICENTER":107.5282,"MEAN_ANOMALY":258.636,"EPHEMERIS_TYPE":0,"CLASSIFICATION_TYPE":"U","NORAD_CAT_ID":5730,"ELEMENT_SET_NO":999,"REV_AT_EPOCH":65789,"BSTAR":0.00036273,"MEAN_MOTION_DOT":6.921e-5,"MEAN_MOTION_DDOT":0},{"OBJECT_NAME":"OAO 3 (COPERNICUS)","OBJECT_ID":"1972-065A","EPOCH":"2026-03-26T10:06:25.503264","MEAN_MOTION":14.60010818,"ECCENTRICITY":0.0007264,"INCLINATION":35.0049,"RA_OF_ASC_NODE":201.9872,"ARG_OF_PERICENTER":295.7073,"MEAN_ANOMALY":119.0519,"EPHEMERIS_TYPE":0,"CLASSIFICATION_TYPE":"U","NORAD_CAT_ID":6153,"ELEMENT_SET_NO":999,"REV_AT_EPOCH":84864,"BSTAR":7.2283e-5,"MEAN_MOTION_DOT":3.31e-6,"MEAN_MOTION_DDOT":0},{"OBJECT_NAME":"ATLAS CENTAUR R/B","OBJECT_ID":"1972-065B","EPOCH":"2026-03-26T07:33:00.192384","MEAN_MOTION":14.77732108,"ECCENTRICITY":0.0033165,"INCLINATION":35.0006,"RA_OF_ASC_NODE":208.3204,"ARG_OF_PERICENTER":151.0162,"MEAN_ANOMALY":209.2387,"EPHEMERIS_TYPE":0,"CLASSIFICATION_TYPE":"U","NORAD_CAT_ID":6155,"ELEMENT_SET_NO":999,"REV_AT_EPOCH":84372,"BSTAR":0.00018362,"MEAN_MOTION_DOT":1.327e-5,"MEAN_MOTION_DDOT":0},{"OBJECT_NAME":"SL-8 R/B","OBJECT_ID":"1975-112B","EPOCH":"2026-03-26T11:24:42.134688","MEAN_MOTION":14.38213264,"ECCENTRICITY":0.0014517,"INCLINATION":74.0631,"RA_OF_ASC_NODE":348.0367,"ARG_OF_PERICENTER":74.2945,"MEAN_ANOMALY":285.981,"EPHEMERIS_TYPE":0,"CLASSIFICATION_TYPE":"U","NORAD_CAT_ID":8459,"ELEMENT_SET_NO":999,"REV_AT_EPOCH":63428,"BSTAR":8.2502e-5,"MEAN_MOTION_DOT":2.25e-6,"MEAN_MOTION_DDOT":0},{"OBJECT_NAME":"SL-3 R/B","OBJECT_ID":"1977-057B","EPOCH":"2026-03-26T11:39:25.261920","MEAN_MOTION":15.45961118,"ECCENTRICITY":0.000663,"INCLINATION":97.5797,"RA_OF_ASC_NODE":258.1539,"ARG_OF_PERICENTER":213.8996,"MEAN_ANOMALY":146.183,"EPHEMERIS_TYPE":0,"CLASSIFICATION_TYPE":"U","NORAD_CAT_ID":10114,"ELEMENT_SET_NO":999,"REV_AT_EPOCH":67092,"BSTAR":0.00027215,"MEAN_MOTION_DOT":0.00013179,"MEAN_MOTION_DDOT":0},{"OBJECT_NAME":"SEASAT 1","OBJECT_ID":"1978-064A","EPOCH":"2026-03-26T10:38:15.071136","MEAN_MOTION":14.46173607,"ECCENTRICITY":0.0002588,"INCLINATION":108.008,"RA_OF_ASC_NODE":160.653,"ARG_OF_PERICENTER":277.6759,"MEAN_ANOMALY":82.4092,"EPHEMERIS_TYPE":0,"CLASSIFICATION_TYPE":"U","NORAD_CAT_ID":10967,"ELEMENT_SET_NO":999,"REV_AT_EPOCH":50893,"BSTAR":0.00010883,"MEAN_MOTION_DOT":2.52e-6,"MEAN_MOTION_DDOT":0},{"OBJECT_NAME":"SL-14 R/B","OBJECT_ID":"1979-011B","EPOCH":"2026-03-26T09:57:28.016640","MEAN_MOTION":14.91928645,"ECCENTRICITY":0.0016176,"INCLINATION":82.5207,"RA_OF_ASC_NODE":80.6949,"ARG_OF_PERICENTER":7.6003,"MEAN_ANOMALY":352.5458,"EPHEMERIS_TYPE":0,"CLASSIFICATION_TYPE":"U","NORAD_CAT_ID":11267,"ELEMENT_SET_NO":999,"REV_AT_EPOCH":53127,"BSTAR":6.4024e-5,"MEAN_MOTION_DOT":6.74e-6,"MEAN_MOTION_DDOT":0}]
